{"type": "FeatureCollection", "features": [ {"type": "Feature", "properties": {"norad_id": 65304, "name": "DRAGON CRS-33", "group": "stations", "lat": 8.407207323838849, "lon": -39.89961734956308, "alt_km": 416.8598905728604, "timestamp": "2025-12-11T20:41:13.867751+00:00", "meta": {"OBJECT_NAME": "DRAGON CRS-33", "OBJECT_ID": "2025-186A", "EPOCH": "2025-12-11T12:13:14.837664", "MEAN_MOTION": 15.49508857, "ECCENTRICITY": 0.00033166, "INCLINATION": 51.6308, "RA_OF_ASC_NODE": 148.5724, "ARG_OF_PERICENTER": 235.7177, "MEAN_ANOMALY": 124.3498, "EPHEMERIS_TYPE": 0, "CLASSIFICATION_TYPE": "U", "NORAD_CAT_ID": 65304, "ELEMENT_SET_NO": 999, "REV_AT_EPOCH": 11, "BSTAR": 0.00026544961, "MEAN_MOTION_DOT": 0.00014464, "MEAN_MOTION_DDOT": 0}, "tle": {"line1": "1 65304U 25186A   25345.50919951  .00014464  00000+0  26545-3 0  9991", "line2": "2 65304  51.6308 148.5724 0003316 235.7177 124.3498 15.49508857   114"}}, "geometry": {"type": "Point", "coordinates": [-39.89961734956308, 8.407207323838849]}}, {"type": "Feature", "properties": {"norad_id": 65586, "name": "PROGRESS-MS 32", "group": "stations", "lat": 8.407206820576956, "lon": -39.89961693987934, "alt_km": 416.8598906225234, "timestamp": "2025-12-11T20:41:13.867761+00:00", "meta": {"OBJECT_NAME": "PROGRESS-MS 32", "OBJECT_ID": "2025-204A", "EPOCH": "2025-12-11T12:13:14.837664", "MEAN_MOTION": 15.49508857, "ECCENTRICITY": 0.00033166, "INCLINATION": 51.6308, "RA_OF_ASC_NODE": 148.5724, "ARG_OF_PERICENTER": 235.7177, "MEAN_ANOMALY": 124.3498, "EPHEMERIS_TYPE": 0, "CLASSIFICATION_TYPE": "U", "NORAD_CAT_ID": 65586, "ELEMENT_SET_NO": 999, "REV_AT_EPOCH": 27, "BSTAR": 0.00026544961, "MEAN_MOTION_DOT": 0.00014464, "MEAN_MOTION_DDOT": 0}, "tle": {"line1": "1 65586U 25204A   25345.50919951  .00014464  00000+0  26545-3 0  9994", "line2": "2 65586  51.6308 148.5724 0003316 235.7177 124.3498 15.49508857   273"}}, "geometry": {"type": "Point", "coordinates": [-39.89961693987934, 8.407206820576956]}}, {"type": "Feature", "properties": {"norad_id": 65616, "name": "CYGNUS NG-23", "group": "stations", "lat": 8.407206367641662, "lon": -39.899616571164316, "alt_km": 416.85989066721595, "timestamp": "2025-12-11T20:41:13.867770+00:00", "meta": {"OBJECT_NAME": "CYGNUS NG-23", "OBJECT_ID": "2025-208A", "EPOCH": "2025-12-11T12:13:14.837664", "MEAN_MOTION": 15.49508857, "ECCENTRICITY": 0.00033166, "INCLINATION": 51.6308, "RA_OF_ASC_NODE": 148.5724, "ARG_OF_PERICENTER": 235.7177, "MEAN_ANOMALY": 124.3498, "EPHEMERIS_TYPE": 0, "CLASSIFICATION_TYPE": "U", "NORAD_CAT_ID": 65616, "ELEMENT_SET_NO": 999, "REV_AT_EPOCH": 22, "BSTAR": 0.00026544961, "MEAN_MOTION_DOT": 0.00014464, "MEAN_MOTION_DDOT": 0}, "tle": {"line1": "1 65616U 25208A   25345.50919951  .00014464  00000+0  26545-3 0  9992", "line2": "2 65616  51.6308 148.5724 0003316 235.7177 124.3498 15.49508857   222"}}, "geometry": {"type": "Point", "coordinates": [-39.899616571164316, 8.407206367641662]}}, {"type": "Feature", "properties": {"norad_id": 65729, "name": "DRAGONFLY", "group": "stations", "lat": 49.80672092595154, "lon": -150.02184624131957, "alt_km": 351.91097353924033, "timestamp": "2025-12-11T20:41:13.867780+00:00", "meta": {"OBJECT_NAME": "DRAGONFLY", "OBJECT_ID": "1998-067XH", "EPOCH": "2025-12-11T11:12:11.633184", "MEAN_MOTION": 15.7135593, "ECCENTRICITY": 0.00066907, "INCLINATION": 51.6236, "RA_OF_ASC_NODE": 142.2802, "ARG_OF_PERICENTER": 270.0967, "MEAN_ANOMALY": 89.9264, "EPHEMERIS_TYPE": 0, "CLASSIFICATION_TYPE": "U", "NORAD_CAT_ID": 65729, "ELEMENT_SET_NO": 999, "REV_AT_EPOCH": 1296, "BSTAR": 0.0019872701, "MEAN_MOTION_DOT": 0.00266351, "MEAN_MOTION_DDOT": 0}, "tle": {"line1": "1 65729U 98067XH  25345.46680131  .00266351  00000+0  19873-2 0  9999", "line2": "2 65729  51.6236 142.2802 0006690 270.0967  89.9264 15.71355930 12960"}}, "geometry": {"type": "Point", "coordinates": [-150.02184624131957, 49.80672092595154]}}, {"type": "Feature", "properties": {"norad_id": 65731, "name": "1998-067XK", "group": "stations", "lat": 42.504845576282406, "lon": -84.8833482528977, "alt_km": 367.5994197695063, "timestamp": "2025-12-11T20:41:13.867791+00:00", "meta": {"OBJECT_NAME": "1998-067XK", "OBJECT_ID": "1998-067XK", "EPOCH": "2025-12-11T10:58:56.610624", "MEAN_MOTION": 15.65405996, "ECCENTRICITY": 0.00051121, "INCLINATION": 51.6282, "RA_OF_ASC_NODE": 143.7363, "ARG_OF_PERICENTER": 237.7502, "MEAN_ANOMALY": 122.2999, "EPHEMERIS_TYPE": 0, "CLASSIFICATION_TYPE": "U", "NORAD_CAT_ID": 65731, "ELEMENT_SET_NO": 999, "REV_AT_EPOCH": 1294, "BSTAR": 0.0014701886, "MEAN_MOTION_DOT": 0.00152029, "MEAN_MOTION_DDOT": 0}, "tle": {"line1": "1 65731U 98067XK  25345.45759966  .00152029  00000+0  14702-2 0  9996", "line2": "2 65731  51.6282 143.7363 0005112 237.7502 122.2999 15.65405996 12940"}}, "geometry": {"type": "Point", "coordinates": [-84.8833482528977, 42.504845576282406]}}, {"type": "Feature", "properties": {"norad_id": 65732, "name": "RSP-03", "group": "stations", "lat": 51.18995003800019, "lon": -138.85887877029342, "alt_km": 360.27533031143776, "timestamp": "2025-12-11T20:41:13.867805+00:00", "meta": {"OBJECT_NAME": "RSP-03", "OBJECT_ID": "1998-067XL", "EPOCH": "2025-12-11T11:09:18.310464", "MEAN_MOTION": 15.68184189, "ECCENTRICITY": 0.00058259, "INCLINATION": 51.626, "RA_OF_ASC_NODE": 143.0256, "ARG_OF_PERICENTER": 242.1359, "MEAN_ANOMALY": 117.9048, "EPHEMERIS_TYPE": 0, "CLASSIFICATION_TYPE": "U", "NORAD_CAT_ID": 65732, "ELEMENT_SET_NO": 999, "REV_AT_EPOCH": 1296, "BSTAR": 0.0016947067, "MEAN_MOTION_DOT": 0.00197326, "MEAN_MOTION_DDOT": 0}, "tle": {"line1": "1 65732U 98067XL  25345.46479526  .00197326  00000+0  16947-2 0  9991", "line2": "2 65732  51.6260 143.0256 0005825 242.1359 117.9048 15.68184189 12961"}}, "geometry": {"type": "Point", "coordinates": [-138.85887877029342, 51.18995003800019]}}, {"type": "Feature", "properties": {"norad_id": 65733, "name": "GHS-01", "group": "stations", "lat": -14.143273910515305, "lon": 128.19419653650314, "alt_km": 347.4082002860623, "timestamp": "2025-12-11T20:41:13.867816+00:00", "meta": {"OBJECT_NAME": "GHS-01", "OBJECT_ID": "1998-067XM", "EPOCH": "2025-12-11T04:00:14.108544", "MEAN_MOTION": 15.73916996, "ECCENTRICITY": 0.00069838, "INCLINATION": 51.6283, "RA_OF_ASC_NODE": 143.2841, "ARG_OF_PERICENTER": 269.574, "MEAN_ANOMALY": 90.4459, "EPHEMERIS_TYPE": 0, "CLASSIFICATION_TYPE": "U", "NORAD_CAT_ID": 65733, "ELEMENT_SET_NO": 999, "REV_AT_EPOCH": 1293, "BSTAR": 0.0018348813, "MEAN_MOTION_DOT": 0.0027452, "MEAN_MOTION_DDOT": 0}, "tle": {"line1": "1 65733U 98067XM  25345.16682996  .00274520  00000+0  18349-2 0  9996", "line2": "2 65733  51.6283 143.2841 0006983 269.5740  90.4459 15.73916996 12935"}}, "geometry": {"type": "Point", "coordinates": [128.19419653650314, -14.143273910515305]}}, {"type": "Feature", "properties": {"norad_id": 65941, "name": "YOTSUBA-KULOVER", "group": "stations", "lat": -50.78253836166006, "lon": 40.53821340321448, "alt_km": 393.3149534239783, "timestamp": "2025-12-11T20:41:13.867829+00:00", "meta": {"OBJECT_NAME": "YOTSUBA-KULOVER", "OBJECT_ID": "1998-067XN", "EPOCH": "2025-12-11T11:52:49.487808", "MEAN_MOTION": 15.59226693, "ECCENTRICITY": 0.00014696, "INCLINATION": 51.6283, "RA_OF_ASC_NODE": 146.2338, "ARG_OF_PERICENTER": 240.9141, "MEAN_ANOMALY": 119.1704, "EPHEMERIS_TYPE": 0, "CLASSIFICATION_TYPE": "U", "NORAD_CAT_ID": 65941, "ELEMENT_SET_NO": 999, "REV_AT_EPOCH": 966, "BSTAR": 0.0013142687, "MEAN_MOTION_DOT": 0.00106075, "MEAN_MOTION_DDOT": 0}, "tle": {"line1": "1 65941U 98067XN  25345.49501722  .00106075  00000+0  13143-2 0  9996", "line2": "2 65941  51.6283 146.2338 0001469 240.9141 119.1704 15.59226693  9662"}}, "geometry": {"type": "Point", "coordinates": [40.53821340321448, -50.78253836166006]}}, {"type": "Feature", "properties": {"norad_id": 65942, "name": "BOTAN", "group": "stations", "lat": -29.695226228140577, "lon": -9.409187101780185, "alt_km": 381.50592957456774, "timestamp": "2025-12-11T20:41:13.867840+00:00", "meta": {"OBJECT_NAME": "BOTAN", "OBJECT_ID": "1998-067XP", "EPOCH": "2025-12-11T10:32:37.738752", "MEAN_MOTION": 15.6250621, "ECCENTRICITY": 0.00032819, "INCLINATION": 51.628, "RA_OF_ASC_NODE": 145.8622, "ARG_OF_PERICENTER": 229.3853, "MEAN_ANOMALY": 130.6856, "EPHEMERIS_TYPE": 0, "CLASSIFICATION_TYPE": "U", "NORAD_CAT_ID": 65942, "ELEMENT_SET_NO": 999, "REV_AT_EPOCH": 966, "BSTAR": 0.0018041945, "MEAN_MOTION_DOT": 0.00166728, "MEAN_MOTION_DDOT": 0}, "tle": {"line1": "1 65942U 98067XP  25345.43932568  .00166728  00000+0  18042-2 0  9991", "line2": "2 65942  51.6280 145.8622 0003281 229.3853 130.6856 15.62506210  9662"}}, "geometry": {"type": "Point", "coordinates": [-9.409187101780185, -29.695226228140577]}}, {"type": "Feature", "properties": {"norad_id": 65943, "name": "E-KAGAKU-1", "group": "stations", "lat": -50.81887241697237, "lon": 40.82115892025675, "alt_km": 392.6410283493542, "timestamp": "2025-12-11T20:41:13.867851+00:00", "meta": {"OBJECT_NAME": "E-KAGAKU-1", "OBJECT_ID": "1998-067XQ", "EPOCH": "2025-12-10T06:39:08.237952", "MEAN_MOTION": 15.5900432, "ECCENTRICITY": 0.00052507, "INCLINATION": 51.6298, "RA_OF_ASC_NODE": 152.3458, "ARG_OF_PERICENTER": 191.2269, "MEAN_ANOMALY": 168.8608, "EPHEMERIS_TYPE": 0, "CLASSIFICATION_TYPE": "U", "NORAD_CAT_ID": 65943, "ELEMENT_SET_NO": 999, "REV_AT_EPOCH": 947, "BSTAR": 0.0012588803, "MEAN_MOTION_DOT": 0.00100705, "MEAN_MOTION_DDOT": 0}, "tle": {"line1": "1 65943U 98067XQ  25344.27717868  .00100705  00000+0  12589-2 0  9990", "line2": "2 65943  51.6298 152.3458 0005250 191.2269 168.8608 15.59004320  9476"}}, "geometry": {"type": "Point", "coordinates": [40.82115892025675, -50.81887241697237]}}]}